C/2015 Y1 (LINEAR),e,71.1657,135.8172,24.6776,248.4750,0.0002516,0.98987199,0.0000,05/13.8942/2016,2000,g 12.0,4.0
# From MPC105543
C/2015 YG1 (NEOWISE),e,57.2887,350.5575,102.4789,16.99671,0.0140655,0.87852641,24.9559,08/06.0/2020,2000,g 13.0,4.0
# From MPC119995
C/2016 A1 (PANSTARRS),h,11/22.7725/2017,121.2052,128.2071,10.2634,1.001632,5.324151,2000,6.0,4.0
# From MPC100282
P/2016 A2 (Christensen),e,26.4069,291.6140,141.5724,4.750187,0.0952002,0.27092063,178.4053,08/06.0/2020,2000,g 11.5,4.0
# From MPC115881
P/2016 A3 (PANSTARRS),e,8.5106,187.2804,340.9388,7.890278,0.0444698,0.38761931,53.1196,08/06.0/2020,2000,g 10.0,4.0
# From MPC109143
C/2016 A5 (PANSTARRS),e,40.2406,136.1879,321.4845,636.2645,0.0000614,0.99537662,0.0000,06/26.7436/2015,2000,g 13.5,4.0
# From MPC109143
C/2016 A6 (PANSTARRS),e,120.9354,300.3785,141.0414,205.6620,0.0003342,0.98831277,0.0000,11/06.4927/2015,2000,g 15.0,4.0
# From MPC102098
P/2016 A7 (PANSTARRS),e,16.6244,221.4831,352.6310,5.031319,0.0873336,0.56540790,141.8423,08/06.0/2020,2000,g 16.0,4.0
# From MPC106345
C/2016 A8 (LINEAR),e,148.2429,111.3320,130.3863,34.28600,0.0049094,0.94495189,7.0580,08/06.0/2020,2000,g 12.0,4.0
# From MPC107048
C/2016 B1 (NEOWISE),e,50.4604,231.9895,8.6811,442.7014,0.0001058,0.99273887,0.0000,12/04.7287/2016,2000,g  9.5,4.0
# From MPC109143
P/2016 BA14 (PANSTARRS),e,18.8947,180.5323,351.9003,3.024544,0.1873761,0.66521196,300.9143,08/06.0/2020,2000,g 21.0,4.0
# From MPC110494
C/2016 C1 (PANSTARRS),h,02/18.7833/2016,56.2253,181.8094,328.7551,1.002156,8.465992,2000,5.5,4.0
# From MPC101098
C/2016 C2 (NEOWISE),e,38.0665,24.4256,214.5570,65.98785,0.0018387,0.97624659,0.0000,04/19.4393/2016,2000,g 16.0,4.0
# From MPC110494
C/2016 E1 (PANSTARRS),h,06/04.2978/2017,131.8900,233.0676,47.4724,1.005972,8.179757,2000,6.5,4.0
# From MPC 99821
C/2016 E2 (Kowalski),e,135.8992,186.8800,321.9469,140.2351,0.0005935,0.99233132,0.0000,02/06.9850/2016,2000,g 20.0,4.0
# From MPC102098
P/2016 G1 (PANSTARRS),e,10.9688,204.0589,111.2816,2.582568,0.2374797,0.21100653,305.7573,08/06.0/2020,2000,g 14.0,4.0
# From MPEC 2017-D91
P/2016 J1-A (PANSTARRS),e,14.3250,199.8221,46.8947,3.174015,0.1742973,0.22816262,261.8120,08/06.0/2020,2000,g 16.5,4.0
# From MPEC 2017-A77
P/2016 J1-B (PANSTARRS),e,14.3277,199.8269,46.7859,3.173645,0.1743278,0.22801360,261.9326,08/06.0/2020,2000,g 17.0,4.0
# From MPC101099
C/2016 J2 (Denneau),e,130.3340,186.3844,318.6473,640.8678,0.0000608,0.99762744,0.0000,04/12.2676/2016,2000,g 17.0,4.0
# From MPC102099
C/2016 KA (Catalina),e,104.6893,317.5067,63.2055,8050,0.0000014,0.99932835,0.0000,02/02.4610/2016,2000,g  8.5,4.0
# From MPC104792
C/2016 K1 (LINEAR),e,90.9296,325.6212,18.2905,910086,0.0000000,0.99999748,0.0000,07/13.3747/2016,2000,g 13.0,4.0
# From MPC119995
C/2016 M1 (PANSTARRS),e,90.9972,92.2055,209.8849,4934,0.0000028,0.99955162,0.0000,08/10.3299/2018,2000,g  5.0,4.0
# From MPC115881
C/2016 N4 (MASTER),e,72.6040,353.9990,55.9382,2463,0.0000081,0.99870176,0.0000,09/16.5091/2017,2000,g  8.5,4.0
# From MPEC 2020-N31
C/2016 N6 (PANSTARRS),e,105.8409,298.9906,162.7500,1643,0.0000148,0.99837702,0.0000,07/18.0806/2018,2000,g  7.0,4.0
# From MPC102099
P/2016 P1 (PANSTARRS),e,24.4557,319.5641,270.0659,3.194455,0.1726271,0.28930089,306.8049,08/06.0/2020,2000,g 15.0,4.0
# From MPC102099
C/2016 P4 (PANSTARRS),e,29.8807,320.7308,356.1837,402.0929,0.0001222,0.98534141,0.0000,10/18.1864/2016,2000,g 10.5,4.0
# From MPEC 2020-N31
C/2016 Q2 (PANSTARRS),e,109.3888,322.2981,84.5058,32442,0.0000002,0.99978170,0.0000,05/11.6034/2021,2000,g  6.0,4.0
# From MPC102955
C/2016 Q4 (Kowalski),e,7.2573,271.2863,99.4080,16.90898,0.0141752,0.58096070,13.0689,08/06.0/2020,2000,g  7.0,4.0
# From MPEC 2020-N31
C/2016 R2 (PANSTARRS),e,58.2269,80.5676,33.1759,543.0505,0.0000779,0.99520691,0.0000,05/09.2618/2018,2000,g  7.0,4.0
# From MPC102099
C/2016 R3 (Borisov),e,53.0406,78.6828,118.1958,199.6983,0.0003493,0.99773486,0.0000,10/10.3662/2016,2000,g 18.0,4.0
# From MPC109144
P/2016 R4 (Gibbs),e,10.8706,168.2785,174.0051,5.331461,0.0800635,0.47610673,118.2139,08/06.0/2020,2000,g 12.5,4.0
# From MPC105543
P/2016 S1 (PANSTARRS),e,94.6599,227.5299,273.2740,8.278992,0.0413750,0.71008243,51.2569,08/06.0/2020,2000,g 12.0,4.0
# From MPC105238
C/2016 T1 (Matheny),e,129.8482,56.2942,137.4276,124.1001,0.0007129,0.98143126,0.0000,02/01.2909/2017,2000,g 14.5,4.0
# From MPC107685
C/2016 T2 (Matheny),e,81.3800,339.1630,92.2358,99.14508,0.0009984,0.98077546,0.0000,12/29.1039/2016,2000,g 14.5,4.0
# From MPC110082
C/2016 T3 (PANSTARRS),e,22.6782,271.7390,194.6612,132.6959,0.0006448,0.98003361,0.0000,09/06.5063/2017,2000,g 10.5,4.0
# From MPC103847
C/2016 U1 (NEOWISE),h,01/13.9731/2017,46.3659,61.4928,162.8311,1.000405,0.322376,2000,17.0,4.0
# From MPC106345
C/2016 VZ18 (PANSTARRS),e,23.9802,98.9208,36.4194,167.2855,0.0004555,0.99453404,0.0000,03/05.8846/2017,2000,g 19.5,4.0
# From MPC106345
P/2016 WM48 (Lemmon),e,117.4304,59.9021,36.0821,8.167159,0.0422277,0.78400502,53.1624,08/06.0/2020,2000,g 15.0,4.0
# From MPC119995
C/2016 X1 (Lemmon),e,26.4539,256.4172,224.5138,1338,0.0000201,0.99434585,0.0000,04/28.9089/2019,2000,g  6.0,4.0
# From MPC108594
C/2017 A1 (PANSTARRS),e,49.7913,121.0460,2.0427,76.75091,0.0014658,0.97014075,0.0000,05/16.3310/2017,2000,g 13.0,4.0
# From MPC108594
C/2017 A3 (Elenin),e,98.5357,97.9059,304.0286,43.47565,0.0034382,0.91148456,4.4119,08/06.0/2020,2000,g  9.5,4.0
# From MPC114598
C/2017 AB5 (PANSTARRS),e,32.4369,42.6524,78.3455,2535,0.0000077,0.99636468,0.0000,02/15.9415/2018,2000,g  5.5,4.0
# From MPEC 2020-N31
C/2017 B3 (LINEAR),h,02/02.6346/2019,54.1728,2.1797,284.7853,1.001858,3.922284,2000,6.0,4.0
# From MPC103847
P/2017 B4 (PANSTARRS),e,20.0584,121.4578,11.0197,4.410520,0.1064068,0.36495152,359.9130,01/05.0/2017,2000,g 14.5,4.0
# From MPC104793
C/2017 C1 (NEOWISE),e,65.7523,357.5181,110.1035,20.60206,0.0105399,0.92717156,13.6552,08/06.0/2020,2000,g 18.0,4.0
# From MPC107685
C/2017 C2 (PANSTARRS),e,118.5876,249.7975,138.6255,96.83561,0.0010343,0.97496960,0.0000,01/21.5816/2017,2000,g 14.0,4.0
# From MPC104793
P/2017 D1 (Fuls),e,20.7572,82.1799,8.0812,4.829944,0.0928519,0.43643577,139.5668,08/06.0/2020,2000,g 14.0,4.0
# From MPC112391
C/2017 D2 (Barros),e,31.2569,330.9668,334.4869,3653,0.0000045,0.99931866,0.0000,07/14.8769/2017,2000,g 11.0,4.0
# From MPC114598
C/2017 D3 (ATLAS),h,04/27.3304/2017,125.5814,186.6630,340.8613,1.002135,4.973758,2000,8.0,4.0
# From MPC110495
P/2017 D4 (PANSTARRS),e,10.5291,264.9386,212.3097,7.566326,0.0473562,0.62846711,67.7356,08/06.0/2020,2000,g 13.0,4.0
# From MPC104794
C/2017 D5 (PANSTARRS),e,131.0568,92.7307,287.7634,114.8343,0.0008009,0.98117714,0.0000,01/09.4641/2017,2000,g 16.0,4.0
# From MPC106346
C/2017 E1 (Borisov),h,04/10.5628/2017,14.5689,142.5870,152.6545,1.003045,0.901228,2000,14.0,4.0
# From MPC109144
C/2017 E2 (Tsuchinshan),e,79.0597,11.5965,89.3769,21.53424,0.0098630,0.89082098,15.2629,08/06.0/2020,2000,g 11.5,4.0
# From MPEC 2020-N31
C/2017 E3 (PANSTARRS),h,06/08.1012/2017,70.6316,220.7369,334.5207,1.006868,5.937908,2000,6.5,4.0
# From MPC105239
C/2017 E4 (Lovejoy),h,04/23.6006/2017,88.1006,223.0628,87.0660,1.001502,0.491176,2000,17.0,4.0
# From MPC105239
C/2017 E5 (Lemmon),e,122.6652,206.3236,306.9152,392.7503,0.0001266,0.99544641,0.0000,06/10.6260/2016,2000,g 13.0,4.0
# From MPC111769
C/2017 F1 (Lemmon),h,11/30.3873/2017,146.4658,158.7844,64.7705,1.003869,4.496680,2000,10.5,4.0
# From MPC114598
C/2017 F2 (PANSTARRS),h,11/27.6105/2017,42.5163,38.6719,135.0451,1.004034,6.932010,2000,7.5,4.0
# From MPC104794
P/2017 G1 (PANSTARRS),e,4.7739,249.6272,224.5611,7.289956,0.0500745,0.65303513,78.1711,08/06.0/2020,2000,g 13.5,4.0
# From MPC108595
P/2017 G2 (PANSTARRS),e,47.9474,79.7901,105.5793,8.072452,0.0429730,0.64837912,49.4686,08/06.0/2020,2000,g 13.0,4.0
# From MPC109144
C/2017 G3 (PANSTARRS),e,159.0580,279.4797,73.1455,311.8034,0.0001790,0.99169173,0.0000,04/15.6247/2017,2000,g 14.0,4.0
# From MPC115882
C/2017 K1 (PANSTARRS),h,03/17.2620/2018,154.0119,225.6584,4.3879,1.001877,7.289422,2000,7.0,4.0
# From MPEC 2020-N31
C/2017 K2 (PANSTARRS),h,12/19.9163/2022,87.5443,88.2620,236.1682,1.000440,1.798986,2000,1.5,4.0
# From MPC106346
P/2017 K3 (Gasparovic),e,4.2741,354.2929,253.4576,5.581202,0.0747502,0.58072924,86.8917,08/06.0/2020,2000,g 14.5,4.0
# From MPEC 2020-N31
C/2017 K4 (ATLAS),e,16.6807,298.8678,15.2190,28.47688,0.0064858,0.90693594,6.1005,08/06.0/2020,2000,g 10.0,4.0
# From MPC119995
C/2017 K5 (PANSTARRS),h,03/25.5035/2020,82.2523,102.3742,171.9234,1.006844,7.679079,2000,5.0,4.0
# From MPC114599
C/2017 K6 (Jacques),e,57.2520,85.0457,303.7606,1059,0.0000286,0.99811197,0.0000,01/03.2875/2018,2000,g 11.0,4.0
# From MPC110083
C/2017 M3 (PANSTARRS),e,77.5440,7.0104,110.3507,167.2562,0.0004556,0.97215067,0.0000,04/28.1412/2017,2000,g 10.5,4.0
# From MPEC 2020-N31
C/2017 M4 (ATLAS),h,01/17.8973/2019,105.6457,65.8684,167.5775,1.001185,3.252200,2000,6.0,4.0
# From MPC118841
C/2017 M5 (TOTAS),h,06/03.9818/2018,15.8800,216.2782,92.7393,1.005265,5.992572,2000,6.5,4.0
# From MPC114599
C/2017 O1 (ASASSN),e,39.8894,25.7699,20.8495,356.6553,0.0001463,0.99580694,0.0000,10/14.7850/2017,2000,g 11.0,4.0
# From MPC114599
P/2017 P1 (PANSTARRS),e,7.6979,221.4010,122.2342,7.891401,0.0444604,0.31053862,34.6586,08/06.0/2020,2000,g 10.0,4.0
# From MPC114599
C/2017 P2 (PANSTARRS),e,50.0570,165.4968,132.3373,2024,0.0000108,0.99878268,0.0000,12/06.6894/2017,2000,g 10.0,4.0
# From MPC114599
P/2017 R1 (PANSTARRS),e,2.5738,143.6194,178.5468,4.134938,0.1172197,0.19562945,142.3403,08/06.0/2020,2000,g 13.5,4.0
# From MPC108595
C/2017 S2 (PANSTARRS),e,12.6791,62.4093,305.9434,20.52090,0.0106025,0.82401143,11.3704,08/06.0/2020,2000,g 13.0,4.0
# From MPC114599
C/2017 S3 (PANSTARRS),h,08/15.9840/2018,99.1208,171.1610,255.8426,1.000051,0.208297,2000,11.0,4.0
# From MPC114599
P/2017 S5 (ATLAS),e,11.8505,252.3813,99.8410,3.168635,0.1747414,0.31397507,193.0052,08/06.0/2020,2000,g 14.0,4.0
# From MPC109591
